{
  "type": "FeatureCollection",
  "features": [
    {
      "type": "Feature",
      "properties": {
        "name": "Russia",
        "users": 1500
      },
      "geometry": {
        "type": "Polygon",
        "coordinates": [/* координаты границ страны */]
      }
    },
    {
      "type": "Feature",
      "properties": {
        "name": "Kazakhstan",
        "users": 420
      },
      "geometry": {
        "type": "Polygon",
        "coordinates": [/* координаты границ страны */]
      }
    }
  ]
}

Используйте код с осторожностью.
Если вы просто загрузите такой файл в репозиторий GitHub, он уже автоматически отобразит карту, но все страны будут одного цвета. Чтобы сделать её интерактивной и красивой, переходим к следующему шагу.
Шаг 2. Напишите код карты (HTML + Leaflet)
Создайте в своем репозитории файл index.html. Ниже представлен готовый рабочий шаблон. Он автоматически красит страны: чем больше пользователей, тем темнее цвет.
html

<!DOCTYPE html>
<html lang="ru">
<head>
    <meta charset="UTF-8">
    <title>Карта пользователей по странам</title>
    <!-- Подключаем стили Leaflet -->
    <link rel="stylesheet" href="https://unpkg.com" />
    <style>
        html, body, #map { margin: 0; padding: 0; width: 100%; height: 100%; }
        .info { padding: 6px 8px; font: 14px/16px Arial, Helvetica, sans-serif; background: white; background: rgba(255,255,255,0.8); box-shadow: 0 0 15px rgba(0,0,0,0.2); border-radius: 5px; }
        .info h4 { margin: 0 0 5px; color: #777; }
    </style>
</head>
<body>

<div id="map"></div>

<!-- Подключаем библиотеку Leaflet -->
<script src="https://unpkg.com"></script>
<script>
    // 1. Инициализация карты мира
    const map = L.map('map').setView([20, 0], 2);

    // 2. Подключаем базовую подложку (светлая карта без лишних деталей)
    L.tileLayer('https://{s}://{z}/{x}/{y}{r}.png', {
        attribution: '&copy; OpenStreetMap contributors &copy; CARTO'
    }).addTo(map);

    // 3. Функция подбора цвета в зависимости от числа пользователей
    function getColor(d) {
        return d > 1000 ? '#800026' :
               d > 500  ? '#BD0026' :
               d > 200  ? '#E31A1C' :
               d > 100  ? '#FC4E2A' :
               d > 50   ? '#FD8D3C' :
               d > 10   ? '#FEB24C' :
               d > 0    ? '#FED976' :
                          '#FFEDA0'; // Если 0 или нет данных
    }

    // 4. Стиль для каждой страны
    function style(feature) {
        return {
            fillColor: getColor(feature.properties.users),
            weight: 1,
            opacity: 1,
            color: 'white',
            dashArray: '3',
            fillOpacity: 0.7
        };
    }

    // 5. Всплывающие подсказки при клике
    function onEachFeature(feature, layer) {
        if (feature.properties && feature.properties.name) {
            const users = feature.properties.users || 0;
            layer.bindPopup(`<strong>${feature.properties.name}</strong><br/>Пользователей: ${users}`);
        }
    }

    // 6. Загрузка ваших данных (замените 'countries.geojson' на ваш путь к файлу)
    fetch('countries.geojson')
        .then(response => response.json())
        .then(data => {
            L.geoJson(data, {
                style: style,
                onEachFeature: onEachFeature
            }).addTo(map);
        });
</script>
</body>
</html>

Используйте код с осторожностью.
Шаг 3. Включите отображение (GitHub Pages)

    Загрузите файлы index.html и countries.geojson в ваш публичный репозиторий на GitHub.
    Перейдите в настройки репозитория (Settings) -> вкладка Pages (в левом меню).
    В разделе Build and deployment выберите источник: Deploy from a branch.
    В поле Branch выберите ветку main (или master) и папку /root, затем нажмите Save.
    Через 1-2 минуты GitHub выдаст вам ссылку вида https://github.io, перейдя по которой вы увидите свою интерактивную карту пользователей.

Скажите, в каком виде у вас сейчас хранятся данные о пользователях (например, список стран в Excel/CSV, база данных, готовый JSON) и сколько примерно стран нужно отобразить? Я могу помочь написать скрипт для автоматической сборки этих данных в нужный для карты формат.
напиши для проверки простой geojson
Вот простой и полностью рабочий файл countries.geojson, который идеально подойдёт для проверки вашей карты.
В него я добавил всего 6 стран из разных частей мира (Россия, Казахстан, США, Бразилия, Германия и Египет) с разным тестовым количеством пользователей (users). Координаты границ стран в этом примере сильно упрощены, чтобы файл оставался компактным и легко читался.
Создайте в репозитории файл с именем countries.geojson и скопируйте в него этот текст:
json

{
  "type": "FeatureCollection",
  "features": [
    {
      "type": "Feature",
      "properties": { "name": "Russia", "users": 1200 },
      "geometry": {
        "type": "Polygon",
        "coordinates": [[[28.0, 70.0], [180.0, 70.0], [180.0, 42.0], [40.0, 42.0], [28.0, 70.0]]]
      }
    },
    {
      "type": "Feature",
      "properties": { "name": "Kazakhstan", "users": 250 },
      "geometry": {
        "type": "Polygon",
        "coordinates": [[[50.0, 55.0], [87.0, 55.0], [85.0, 42.0], [46.0, 42.0], [50.0, 55.0]]]
      }
    },
    {
      "type": "Feature",
      "properties": { "name": "United States", "users": 850 },
      "geometry": {
        "type": "Polygon",
        "coordinates": [[[-125.0, 49.0], [-67.0, 49.0], [-80.0, 25.0], [-117.0, 25.0], [-125.0, 49.0]]]
      }
    },
    {
      "type": "Feature",
      "properties": { "name": "Brazil", "users": 45 },
      "geometry": {
        "type": "Polygon",
        "coordinates": [[[-70.0, 5.0], [-35.0, -5.0], [-50.0, -30.0], [-70.0, -15.0], [-70.0, 5.0]]]
      }
    },
    {
      "type": "Feature",
      "properties": { "name": "Germany", "users": 150 },
      "geometry": {
        "type": "Polygon",
        "coordinates": [[[6.0, 55.0], [15.0, 55.0], [14.0, 47.0], [6.0, 47.0], [6.0, 55.0]]]
      }
    },
    {
      "type": "Feature",
      "properties": { "name": "Egypt", "users": 5 },
      "geometry": {
        "type": "Polygon",
        "coordinates": [[[25.0, 31.0], [35.0, 31.0], [36.0, 22.0], [25.0, 22.0], [25.0, 31.0]]]
      }
    }
  ]
}
